{"fetched_at":"2026-03-29T16:36:15Z","count":15609,"tles":[{"name":"STARLINK-35315","line1":"1 66543U 25265AD  26087.60497730  .00039588  00000+0  14387-2 0  9990","line2":"2 66543  43.0024 171.3341 0002111 250.5686 109.4937 15.27618847 20000","category":"Starlink"}]}