{
  "norad_id": 66543,
  "name": "STARLINK-35315",
  "history": [
    {
      "epoch": "2026-03-28T14:31:10.038720",
      "apogee_km": 484.3811484414,
      "perigee_km": 481.48440478171506,
      "latitude_deg": 25.189122254586273,
      "longitude_deg": 172.3778207998257,
      "semi_major_axis_km": 6861.069776611557,
      "eccentricity": 0.0002111,
      "inclination_deg": 43.0024,
      "raan_deg": 171.3341,
      "arg_perigee_deg": 250.5686,
      "mean_anomaly_deg": 109.4937,
      "mean_motion_rev_day": 15.27618847
    }
  ]
}